OBJECT_NAME,OBJECT_ID,EPOCH,MEAN_MOTION,ECCENTRICITY,INCLINATION,RA_OF_ASC_NODE,ARG_OF_PERICENTER,MEAN_ANOMALY,EPHEMERIS_TYPE,CLASSIFICATION_TYPE,NORAD_CAT_ID,ELEMENT_SET_NO,REV_AT_EPOCH,BSTAR,MEAN_MOTION_DOT,MEAN_MOTION_DDOT
STARLINK-37537,2026-126A,2026-07-01T08:09:59.169888,15.75286387,.00018143,97.2837,43.0110,76.2885,283.8582,0,U,69420,999,497,.15204025E-2,.233945E-2,0
STARLINK-37585,2026-126B,2026-07-01T03:20:17.655072,15.75193045,.00016262,97.2837,42.8277,158.6116,201.5217,0,U,69421,999,494,.23467932E-2,.365361E-2,0
STARLINK-37573,2026-126C,2026-07-01T20:26:23.960544,15.75290937,.00014358,97.2841,43.5387,120.7664,239.3743,0,U,69422,999,505,.19719518E-2,.306126E-2,0
STARLINK-37820,2026-126D,2026-07-01T22:00:01.999584,15.75151357,.00014355,97.2833,43.7254,100.0149,184.5596,0,U,69423,999,507,.97941896E-4,.14479E-3,0
STARLINK-37822,2026-126E,2026-07-01T21:11:07.948032,15.75378528,.00017288,97.2826,43.6517,131.4980,228.6434,0,U,69424,999,506,.21008714E-2,.328242E-2,0
STARLINK-37836,2026-126F,2026-07-01T22:00:01.999584,15.75147809,.0001481,97.2837,43.7328,86.8256,213.7488,0,U,69425,999,507,.86554981E-4,.12776E-3,0
STARLINK-37850,2026-126G,2026-07-01T22:00:01.999584,15.75133311,.00015961,97.2833,43.7222,101.5039,171.0760,0,U,69426,999,512,.37515125E-3,.56058E-3,0
STARLINK-37823,2026-126H,2026-07-01T21:20:16.816128,15.75385725,.00023389,97.2828,43.6427,117.9099,242.2404,0,U,69427,999,506,.19096165E-2,.297356E-2,0
STARLINK-37834,2026-126J,2026-07-01T12:23:35.164608,15.75301060,.00014974,97.2830,43.2331,69.0186,291.1239,0,U,69428,999,500,.17045676E-2,.263378E-2,0
STARLINK-37857,2026-126K,2026-07-01T21:16:12.889056,15.75382926,.00016289,97.2828,43.6467,132.2214,227.9190,0,U,69429,999,506,.24975143E-2,.39334E-2,0
STARLINK-37866,2026-126L,2026-07-01T22:00:01.999584,15.75131608,.00012707,97.2842,43.7388,93.9058,218.6711,0,U,69430,999,512,.38136773E-3,.5699E-3,0
STARLINK-37555,2026-126M,2026-07-01T20:58:56.496864,15.75271336,.00007695,97.2834,43.6638,137.0034,223.1292,0,U,69431,999,511,.14120805E-2,.216684E-2,0
STARLINK-37870,2026-126N,2026-07-01T20:53:51.094464,15.75261099,.00009527,97.2831,43.6683,132.8812,227.2533,0,U,69432,999,506,.1516753E-2,.233104E-2,0
STARLINK-37872,2026-126P,2026-07-01T22:00:01.999584,15.75090620,.00019107,97.2845,43.7538,96.7386,249.8195,0,U,69433,999,507,.43317275E-3,.64696E-3,0
STARLINK-37815,2026-126Q,2026-07-01T21:43:39.179712,15.75321115,.00014987,97.2843,43.6202,119.0478,241.0937,0,U,69434,999,506,.19536478E-2,.303587E-2,0
STARLINK-37801,2026-126R,2026-07-01T21:23:19.735296,15.75430335,.0002085,97.2837,43.6406,118.7070,241.4405,0,U,69435,999,511,.23243509E-2,.365602E-2,0
STARLINK-37800,2026-126S,2026-07-01T12:17:29.400576,15.75339464,.00014508,97.2825,43.2380,90.8856,269.2576,0,U,69436,999,500,.23472115E-2,.367854E-2,0
STARLINK-37792,2026-126T,2026-07-01T21:59:48.244704,15.79901653,.00013931,97.2848,43.7589,92.5635,267.5792,0,U,69437,999,512,.17083876E-2,.325828E-2,0
STARLINK-37783,2026-126U,2026-07-01T22:00:01.999584,15.75177312,.00013057,97.2843,43.7476,95.8018,238.7549,0,U,69438,999,512,-.18515962E-3,-.27643E-3,0
STARLINK-37771,2026-126V,2026-07-01T20:18:16.120224,15.75304859,.00011629,97.2832,43.5483,131.4585,228.6780,0,U,69439,999,505,.2251956E-2,.351723E-2,0
STARLINK-37747,2026-126W,2026-07-01T21:05:02.247936,15.75190680,.00014501,97.2825,43.6579,100.7888,259.3540,0,U,69440,999,506,.10737067E-2,.163121E-2,0
STARLINK-37629,2026-127A,2026-07-01T21:34:15.073248,15.75217369,.00008853,53.1578,189.2984,80.2835,279.8285,0,U,69443,999,372,.53003529E-3,.81315E-3,0
STARLINK-37509,2026-127B,2026-07-01T07:45:55.391328,15.75339667,.00014178,53.1588,192.1089,99.7740,260.3440,0,U,69444,999,363,.13858647E-2,.218327E-2,0
STARLINK-37641,2026-127C,2026-07-01T21:08:05.298432,15.75341804,.00014262,53.1575,189.1773,113.3447,246.7723,0,U,69445,999,372,.14181848E-2,.223595E-2,0
STARLINK-37522,2026-127D,2026-07-01T21:27:43.169760,15.75307482,.0000337,53.1593,189.2680,34.0052,326.0990,0,U,69446,999,372,.19142941E-2,.304537E-2,0
STARLINK-37640,2026-127E,2026-07-01T22:19:51.909888,15.75240459,.00010705,53.1589,188.7716,72.1162,287.9975,0,U,69447,999,373,.12494131E-2,.19538E-2,0
STARLINK-37572,2026-127F,2026-07-01T21:15:06.929568,15.75316542,.00005876,53.1588,189.2092,57.0918,303.0158,0,U,69448,999,372,.18491301E-2,.293883E-2,0
STARLINK-37643,2026-127G,2026-07-01T21:21:39.170880,15.75212855,.00012505,53.1595,189.2398,47.3184,312.7941,0,U,69449,999,372,.45554557E-3,.69687E-3,0
STARLINK-37601,2026-127H,2026-06-30T22:30:44.827776,15.75262467,.00012159,53.1587,193.9665,31.3061,328.8031,0,U,69450,999,357,.11039805E-2,.172252E-2,0
