STARLINK-37537          
1 69420U 26126A   26182.34026817  .00233945  00000+0  15204-2 0  9997
2 69420  97.2837  43.0110 0001814  76.2885 283.8582 15.75286387  4976
STARLINK-37585          
1 69421U 26126B   26182.13909323  .00365361  00000+0  23468-2 0  9996
2 69421  97.2837  42.8277 0001626 158.6116 201.5217 15.75193045  4948
STARLINK-37573          
1 69422U 26126C   26182.85166621  .00306126  00000+0  19720-2 0  9992
2 69422  97.2841  43.5387 0001435 120.7664 239.3743 15.75290937  5054
STARLINK-37820          
1 69423U 26126D   26182.91668981  .00014479  00000+0  97942-4 0  9997
2 69423  97.2833  43.7254 0001435 100.0149 184.5596 15.75151357  5071
STARLINK-37822          
1 69424U 26126E   26182.88273088  .00328242  00000+0  21009-2 0  9999
2 69424  97.2826  43.6517 0001728 131.4980 228.6434 15.75378528  5062
STARLINK-37836          
1 69425U 26126F   26182.91668981  .00012776  00000+0  86555-4 0  9995
2 69425  97.2837  43.7328 0001481  86.8256 213.7488 15.75147809  5072
STARLINK-37850          
1 69426U 26126G   26182.91668981  .00056058  00000+0  37515-3 0  9998
2 69426  97.2833  43.7222 0001596 101.5039 171.0760 15.75133311  5121
STARLINK-37823          
1 69427U 26126H   26182.88908352  .00297356  00000+0  19096-2 0  9995
2 69427  97.2828  43.6427 0002338 117.9099 242.2404 15.75385725  5061
STARLINK-37834          
1 69428U 26126J   26182.51637922  .00263378  00000+0  17046-2 0  9998
2 69428  97.2830  43.2331 0001497  69.0186 291.1239 15.75301060  5007
STARLINK-37857          
1 69429U 26126K   26182.88626029  .00393340  00000+0  24975-2 0  9997
2 69429  97.2828  43.6467 0001628 132.2214 227.9190 15.75382926  5069
STARLINK-37866          
1 69430U 26126L   26182.91668981  .00056990  00000+0  38137-3 0  9999
2 69430  97.2842  43.7388 0001270  93.9058 218.6711 15.75131608  5124
STARLINK-37555          
1 69431U 26126M   26182.87426501  .00216684  00000+0  14121-2 0  9999
2 69431  97.2834  43.6638 0000769 137.0034 223.1292 15.75271336  5116
STARLINK-37870          
1 69432U 26126N   26182.87073026  .00233104  00000+0  15168-2 0  9998
2 69432  97.2831  43.6683 0000952 132.8812 227.2533 15.75261099  5067
STARLINK-37872          
1 69433U 26126P   26182.91668981  .00064696  00000+0  43317-3 0  9990
2 69433  97.2845  43.7538 0001910  96.7386 249.8195 15.75090620  5077
STARLINK-37815          
1 69434U 26126Q   26182.90531458  .00303587  00000+0  19536-2 0  9998
2 69434  97.2843  43.6202 0001498 119.0478 241.0937 15.75321115  5068
STARLINK-37801          
1 69435U 26126R   26182.89120064  .00365602  00000+0  23244-2 0  9991
2 69435  97.2837  43.6406 0002085 118.7070 241.4405 15.75430335  5110
STARLINK-37800          
1 69436U 26126S   26182.51214584  .00367854  00000+0  23472-2 0  9996
2 69436  97.2825  43.2380 0001450  90.8856 269.2576 15.75339464  5008
STARLINK-37792          
1 69437U 26126T   26182.91653061  .00325828  00000+0  17084-2 0  9995
2 69437  97.2848  43.7589 0001393  92.5635 267.5792 15.79901653  5123
STARLINK-37783          
1 69438U 26126U   26182.91668981 -.00027643  00000+0 -18516-3 0  9991
2 69438  97.2843  43.7476 0001305  95.8018 238.7549 15.75177312  5121
STARLINK-37771          
1 69439U 26126V   26182.84601991  .00351723  00000+0  22520-2 0  9998
2 69439  97.2832  43.5483 0001162 131.4585 228.6780 15.75304859  5058
STARLINK-37747          
1 69440U 26126W   26182.87849824  .00163121  00000+0  10737-2 0  9992
2 69440  97.2825  43.6579 0001450 100.7888 259.3540 15.75190680  5065
STARLINK-37629          
1 69443U 26127A   26182.89878557  .00081315  00000+0  53004-3 0  9992
2 69443  53.1578 189.2984 0000885  80.2835 279.8285 15.75217369  3724
STARLINK-37509          
1 69444U 26127B   26182.32355777  .00218327  00000+0  13859-2 0  9993
2 69444  53.1588 192.1089 0001417  99.7740 260.3440 15.75339667  3631
STARLINK-37641          
1 69445U 26127C   26182.88061688  .00223595  00000+0  14182-2 0  9993
2 69445  53.1575 189.1773 0001426 113.3447 246.7723 15.75341804  3729
STARLINK-37522          
1 69446U 26127D   26182.89424965  .00304537  00000+0  19143-2 0  9994
2 69446  53.1593 189.2680 0000337  34.0052 326.0990 15.75307482  3721
STARLINK-37640          
1 69447U 26127E   26182.93046192  .00195380  00000+0  12494-2 0  9998
2 69447  53.1589 188.7716 0001070  72.1162 287.9975 15.75240459  3730
STARLINK-37572          
1 69448U 26127F   26182.88549687  .00293883  00000+0  18491-2 0  9990
2 69448  53.1588 189.2092 0000587  57.0918 303.0158 15.75316542  3725
STARLINK-37643          
1 69449U 26127G   26182.89003670  .00069687  00000+0  45555-3 0  9994
2 69449  53.1595 189.2398 0001250  47.3184 312.7941 15.75212855  3727
STARLINK-37601          
1 69450U 26127H   26181.93801884  .00172252  00000+0  11040-2 0  9997
2 69450  53.1587 193.9665 0001215  31.3061 328.8031 15.75262467  3572
